FENGYUN 1C DEB          
1 30144U 99025SZ  17345.92337014  .00000135  00000-0  13954-3 0  9990
2 30144  99.1634  20.6891 0129833 299.2801 183.0693 13.88642208552485
